[{"OBJECT_NAME":"STARLINK-32887","OBJECT_ID":"2025-029S","EPOCH":"2026-03-09T17:05:41.654688","MEAN_MOTION":15.30196082,"ECCENTRICITY":0.00011819,"INCLINATION":53.1596,"RA_OF_ASC_NODE":230.037,"ARG_OF_PERICENTER":88.0108,"MEAN_ANOMALY":272.1028,"EPHEMERIS_TYPE":0,"CLASSIFICATION_TYPE":"U","NORAD_CAT_ID":62964,"ELEMENT_SET_NO":999,"REV_AT_EPOCH":6135,"BSTAR":0.00070857149,"MEAN_MOTION_DOT":0.00020683,"MEAN_MOTION_DDOT":0},{"OBJECT_NAME":"COSMOS 1862","OBJECT_ID":"1987-055A","EPOCH":"2026-03-09T22:37:02.390592","MEAN_MOTION":15.30492139,"ECCENTRICITY":0.00097484,"INCLINATION":82.4856,"RA_OF_ASC_NODE":47.1862,"ARG_OF_PERICENTER":26.6325,"MEAN_ANOMALY":333.5414,"EPHEMERIS_TYPE":0,"CLASSIFICATION_TYPE":"U","NORAD_CAT_ID":18152,"ELEMENT_SET_NO":999,"REV_AT_EPOCH":8987,"BSTAR":0.00034125048,"MEAN_MOTION_DOT":0.00010107,"MEAN_MOTION_DDOT":0}]
